DryMass, ErgolMass, DV, ManeuverType, ISP
500
298.350096
2 13601 005.0000 359.4721 0000003 032.4402 295.0504 01.75794726917443
1 13601U 23001EAE 25062.90503485  .00030938  00000+0  12818-2 0  9996
500

